#dP2020  9 10  0  0  0.00000000      96 __u+U ITR00 FIT  IAC
## 2122 345600.00000000   900.00000000 59102 0.0000000000000
+  114   C01C02C03C04C05C06C07C08C09C10C11C12C13C14C16C19C20
+        C21C22C23C24C25C26C27C28C29C30C32C33C34C35C36C37C43
+        C46E01E02E03E04E05E07E08E09E11E12E13E14E15E18E19E21
+        E24E25E26E27E30E31E33E36G01G02G03G04G05G06G07G08G09
+        G10G11G12G13G15G16G17G18G19G20G21G22G24G25G26G27G28
+        G29G30G31G32J01J02J03R01R02R03R04R05R07R08R11R12R13
+        R14R15R16R17R18R19R20R21R22R23R24R26  0  0  0  0  0
++        13 13 12  0  0  9  9  8  8  8  7  7  8  8  8  7  8
++         8  7  8  8  8  8  8  8  8  8  8  8  8  8  8  8  9
++         0  5  5  5  4  4  4  4  4  4  5  4  4  4  4  4  4
++         4  5  5  4  4  5  5  5  3  3  3  4  3  3  3  3  3
++         3  4  3  4  4  3  3  3  3  4  4  3  3  3  3  3  3
++         3  3  3  3  8  8  8  6  5  5  5  6  5  5  5  5  6
++         5  6  6  6  5  6  6  5  6  6  6  8  0  0  0  0  0
%c M  cc GPS ccc cccc cccc cccc cccc ccccc ccccc ccccc ccccc
%c cc cc ccc ccc cccc cccc cccc cccc ccccc ccccc ccccc ccccc
%f  0.0000000  0.000000000  0.00000000000  0.000000000000000
%f  0.0000000  0.000000000  0.00000000000  0.000000000000000
%i    0    0    0    0      0      0      0      0         0
%i    0    0    0    0      0      0      0      0         0
/* INFORMATION & ANALYSIS CENTER (IAC)            RAPID DATA
/* S/V CLOCKS ARE ALIGNED TO GNSS TIME                      
/* G:C1WC2W R:C1PC2P E:C1XC5X C:C2IC6I J:C1CC2S             
/* PCV:IGS14_2118 OL/AL:FES2004  NONE     YN ORB:CoN CLK:CoN
*  2020 09 10 23  0  0.00000000
PC01 -34284.581480  24548.004535     -4.489045   -149.997535
PC02   4356.078106  41928.926691   -416.536003    845.744259
PC03 -14777.907170  39454.200353    391.481897    797.076459
PC04      0.000000      0.000000      0.000000 999999.999999
PC05      0.000000      0.000000      0.000000 999999.999999
PC06 -12478.348231  21081.521825 -33901.092081    243.587542
PC07 -23736.975904  31984.329642  13229.952455     -1.392944
PC08  -8893.494365  36314.147785  19929.416381   -515.042709
PC09   3236.108430  27502.363955 -31420.788539    801.903504
PC10 -11011.701607  32953.152767  23797.484999   -189.814746
PC11 -14852.459082   6977.660888  22617.530812   -612.664520
PC12 -23614.545299  -9090.681956  11756.810250    504.845353
PC13   -163.268850  41785.579275   6757.382346    640.886980
PC14 -23743.641433  13582.037097  -5346.212750    258.549912
PC16  -7662.230926  22980.778350 -34399.855355   -589.099572
PC19  17129.464395 -17227.467914  13766.474745    541.684125
PC20  26420.272553  -8604.063046  -2757.712912   -841.818024
PC21 -20273.530861  -5588.999208  18343.074167   -676.164251
PC22  -2282.525986 -16073.628554  22697.478436   -765.280740
PC23   1916.498525  26552.176224   8379.009376   -860.804685
PC24 -16493.368567   7391.238411 -21262.694021   -729.616906
PC25  -9501.737327  24730.213144  -8794.793154   -752.446092
PC26 -13494.536592 -12371.207014 -21053.309831    825.547098
PC27  22675.968393  16003.080755  -2867.894915    396.813474
PC28  10828.685626  21486.447758  14148.871569   -171.809941
PC29   6775.669862 -14635.511224 -22780.113000    282.124758
PC30  21416.166383    707.604546 -17873.148353    373.932126
PC32  20336.919055   5429.272359 -18318.840378   -900.223035
PC33 -17089.660086  17296.714944 -13676.389466   -796.585623
PC34 -21182.113561   -283.158379  18166.206215   -857.608180
PC35 -11344.349137 -21131.686587 -14290.672297   -660.134340
PC36  10237.964790 -24341.199434   9067.240844   -928.622002
PC37  12909.025327  13444.814181  20799.591748   -931.046129
PC43  -7282.211438  14443.020328  22733.350202   -367.033844
PC46      0.000000      0.000000      0.000000 999999.999999
PE01  17773.014748   1961.857604  23599.086984   -938.143281
PE02 -17820.771669  -1840.162910 -23556.489822    160.726829
PE03 -28483.886584  -5902.715683   5426.702407   -341.466673
PE04  25812.759286  -7111.158640  12630.584292   -604.542411
PE05 -14486.453303 -15629.799928  20541.281891   -347.174502
PE07  -7835.228458  16147.153835 -23531.896602   -434.422332
PE08 -25602.996484   7348.704582 -12892.760927   6122.445038
PE09   7627.519929 -16079.107558  23658.134206   5934.984412
PE11    579.487778 -24139.838866 -17134.688683   5418.376604
PE12  14543.931258  -7279.603140 -24734.423198   5611.805619
PE13   -637.365014  23975.864877  17350.390216    403.589658
PE14 -11945.663409  10415.270435  17150.132682  -1151.393518
PE15 -14348.959062   7492.389998  24783.944104    852.990207
PE18  14306.192421 -15954.802051 -24595.725788  -1258.419270
PE19  27709.900281   7228.392473  -7489.417303     75.335395
PE21   4408.854671  19533.849948  21803.477946   -620.726433
PE24  12251.585789 -26051.372805  -6854.995860   5250.716851
PE25  -4262.985342 -19644.209175 -21715.704829   -516.426078
PE26  13595.664311  26289.187110   -801.788263   2740.882300
PE27 -11838.655221  26145.220535   7254.651516    136.788423
PE30 -21241.428502  16821.834982 -11923.386693   3594.720004
PE31  21056.859387 -17347.458993  11506.248804   -474.051640
PE33  19626.213643  13401.104813 -17647.189806   -462.868795
PE36 -13439.631940 -26368.956087    269.193637    509.125184
PG01 -14458.380644   2451.453700  21910.665900     36.082797
PG02  14046.076279  18724.675743 -11941.555582   -514.702228
PG03 -22129.340238  10824.768153   9716.772537   -295.528757
PG04 -22986.952977   1503.209932 -13244.726692   -134.530721
PG05  14273.713938   7310.978318 -21350.391100    -20.814404
PG06   5765.618129  25901.019794   -427.257828   -324.509255
PG07  -7473.664632  19573.701866 -15702.401318   -369.766977
PG08 -25892.596799  -5678.135812   3242.089274    -47.519138
PG09 -13665.949624  10746.500347 -20139.266395   -284.128292
PG10   6744.857549 -20453.635419  15462.990560   -451.317845
PG11 -20084.549674  -5303.421768  15880.493867   -167.863646
PG12  22603.110857  -8338.803478  10777.689118     68.888670
PG13  22566.418976  13633.453425  -3795.934663     44.091488
PG15  26338.977749   2974.532603   3366.362388   -204.541987
PG16 -15273.571812  -6362.394213 -21091.479474   -207.430271
PG17   4392.462944  16548.447374  20745.744285    324.079077
PG18   7039.985089 -20452.114095 -15398.298614    287.807424
PG19  11923.947539  17136.030694  16166.183185   -106.576614
PG20  14493.947186 -21714.510998   4030.564880    526.777993
PG21 -13993.927155 -20232.650787  11190.163517     45.726120
PG22 -20648.724245   4516.505497  16192.973499   -755.722761
PG24  16111.943880    331.097043  20948.528156    -18.414660
PG25  19984.085408 -17252.360664    700.795480     47.336497
PG26  -4308.490529 -16372.595912 -20444.433954    276.668462
PG27 -22268.492111 -12717.233861  -7704.991346   -392.609709
PG28  -6919.100263  19607.084003  17197.327683    680.137020
PG29  17083.099853  -6808.299990 -19223.745553   -192.039838
PG30   -887.137746  25398.539925  -7267.056077   -299.368993
PG31  -6562.433083 -25342.557740  -2666.554937    -67.897401
PG32  -6143.609708 -16656.342375  19888.112916    344.661724
PJ01 -34409.915451  19467.278374 -10051.112264   -348.164830
PJ02 -25383.321622  31593.260465  -7091.787373     -3.513053
PJ03 -26937.567952  21967.945647  28920.158334     -1.025622
PR01  23658.472999  -7819.570194   5490.890524     67.394383
PR02   7139.888593 -11713.219757  21528.063130    445.034468
PR03 -11851.233572  -7954.446183  21190.983353     21.793257
PR04 -23894.221884    395.077700   8949.858042     54.127121
PR05 -22606.208370   8364.861124  -8373.308077     57.350403
PR07  12358.241509   7717.957265 -20893.346813    -40.014137
PR08  23903.675227   -383.235197  -8822.392822    -54.490907
PR11  11820.897605   -645.599597  22622.127244    -37.195112
PR12  12817.662422 -17006.044884  14063.848663    162.758507
PR13   6544.594106 -24482.972502  -2942.718850    -43.661601
PR14  -3449.997279 -17346.141776 -18370.394288     55.412775
PR15 -11369.929961   -349.732441 -22803.016619    106.983135
PR16 -12451.908593  17885.929413 -13370.397078     -6.207364
PR17 -15161.136342 -20133.742532  -3760.488276    357.079069
PR18 -18249.594526 -12367.489067  12881.416786     48.926432
PR19 -11918.158258   1257.910879  22511.383599   -110.645279
PR20   2655.286429  16693.134147  19093.678141   -421.466763
PR21  15611.285341  20013.492514   2720.120497   -151.290916
PR22  17961.021435  11496.477889 -13947.793076    -72.299532
PR23   6983.558487  -7851.177759 -23254.178571    331.143097
PR24  -3105.596006 -17297.973926 -18465.013095     12.846605
PR26  -1256.880966  13457.155802  21648.960526   -362.265261
EOF
